     2.10           GLONASS NAV DATA                        RINEX VERSION / TYPE
cnvtToRINEX 3.07.0  convertToRINEX OPR  19-May-20 12:34 UTC PGM / RUN BY / DATE 
----------------------------------------------------------- COMMENT             
  2020     5    16   -0.931322574615D-09                    CORR TO SYSTEM TIME 
    18                                                      LEAP SECONDS        
                                                            END OF HEADER       
16 20 05 16 01 45  0.0-0.355113297701D-05 0.000000000000D+00 0.540000000000D+04
   -0.199421215820D+05-0.206959152222D+01 0.000000000000D+00 0.000000000000D+00
    0.509519921875D+04-0.123035430908D+00 0.000000000000D+00-0.100000000000D+01
    0.151253310547D+05-0.267157554626D+01 0.000000000000D+00 0.000000000000D+00
20 20 05 16 01 45  0.0-0.411792658269D-03-0.909494701773D-12 0.540000000000D+04
   -0.119262089844D+05-0.607297897339D+00 0.000000000000D+00 0.000000000000D+00
    0.206646318359D+05 0.109379863739D+01 0.279396772385D-08 0.200000000000D+01
   -0.895011425781D+04 0.333739185333D+01 0.000000000000D+00 0.000000000000D+00
 9 20 05 16 01 45  0.0 0.132808461785D-03 0.181898940355D-11 0.540000000000D+04
    0.887273925781D+03-0.309134960175D+01-0.931322574615D-09 0.000000000000D+00
    0.113863945313D+05-0.417623519897D+00 0.000000000000D+00-0.200000000000D+01
    0.228242124023D+05 0.322175979614D+00-0.186264514923D-08 0.000000000000D+00
 7 20 05 16 01 45  0.0-0.365497544408D-04 0.000000000000D+00 0.540000000000D+04
    0.115829531250D+05 0.395099639893D+00-0.931322574615D-09 0.000000000000D+00
    0.221693847656D+05 0.563682556152D+00 0.186264514923D-08 0.500000000000D+01
    0.494135595703D+04-0.348802280426D+01-0.931322574615D-09 0.000000000000D+00
19 20 05 16 01 45  0.0-0.934973359108D-04-0.909494701773D-12 0.540000000000D+04
   -0.180957958984D+05 0.110042858124D+01 0.000000000000D+00 0.000000000000D+00
    0.144962875977D+05-0.982854843140D+00 0.931322574615D-09 0.300000000000D+01
    0.106277021484D+05 0.321349334717D+01-0.931322574615D-09 0.000000000000D+00
19 20 05 16 02 15  0.0-0.935010612011D-04-0.909494701773D-12 0.720000000000D+04
   -0.158816103516D+05 0.131337738037D+01 0.000000000000D+00 0.000000000000D+00
    0.120270537109D+05-0.175619411469D+01 0.931322574615D-09 0.300000000000D+01
    0.159262285156D+05 0.263552093506D+01-0.931322574615D-09 0.000000000000D+00
16 20 05 16 02 15  0.0-0.355113297701D-05 0.000000000000D+00 0.720000000000D+04
   -0.230357788086D+05-0.133844280243D+01 0.000000000000D+00 0.000000000000D+00
    0.515594091797D+04 0.158157348633D+00 0.000000000000D+00-0.100000000000D+01
    0.979627490234D+04-0.321118640900D+01 0.000000000000D+00 0.000000000000D+00
 9 20 05 16 02 15  0.0 0.132812187076D-03 0.181898940355D-11 0.720000000000D+04
   -0.471160742188D+04-0.307878398895D+01 0.000000000000D+00 0.000000000000D+00
    0.110314282227D+05 0.245571136475D-01 0.000000000000D+00-0.200000000000D+01
    0.225155698242D+05-0.663094520569D+00-0.186264514923D-08 0.000000000000D+00
20 20 05 16 02 15  0.0-0.411794520915D-03-0.909494701773D-12 0.720000000000D+04
   -0.124372143555D+05 0.138378143311D-01 0.000000000000D+00 0.000000000000D+00
    0.220793144531D+05 0.442798614502D+00 0.279396772385D-08 0.200000000000D+01
   -0.267356787109D+04 0.359112262726D+01 0.000000000000D+00 0.000000000000D+00
 7 20 05 16 02 15  0.0-0.365506857634D-04 0.000000000000D+00 0.720000000000D+04
    0.120036655273D+05 0.339632034302D-01 0.000000000000D+00 0.000000000000D+00
    0.224349028320D+05-0.254518508911D+00 0.279396772385D-08 0.500000000000D+01
   -0.144719824219D+04-0.356419181824D+01-0.931322574615D-09 0.000000000000D+00
18 20 05 16 01 45  0.0 0.354684889317D-04 0.909494701773D-12 0.540000000000D+04
   -0.133180483398D+05 0.190672969818D+01 0.000000000000D+00 0.000000000000D+00
    0.110330615234D+04-0.228854179382D+01 0.000000000000D+00-0.300000000000D+01
    0.217244243164D+05 0.129114151001D+01-0.931322574615D-09 0.000000000000D+00
18 20 05 16 02 15  0.0 0.354712828994D-04 0.909494701773D-12 0.726000000000D+04
   -0.100955615234D+05 0.163661193848D+01 0.000000000000D+00 0.000000000000D+00
   -0.343931005859D+04-0.272144317627D+01-0.931322574615D-09-0.300000000000D+01
    0.231788471680D+05 0.314579963684D+00-0.931322574615D-09 0.000000000000D+00
19 20 05 16 02 45  0.0-0.935038551688D-04-0.909494701773D-12 0.900000000000D+04
   -0.135320805664D+05 0.125383567810D+01 0.000000000000D+00 0.000000000000D+00
    0.822595703125D+04-0.244325351715D+01 0.000000000000D+00 0.300000000000D+01
    0.199929804688D+05 0.185375308990D+01-0.931322574615D-09 0.000000000000D+00
20 20 05 16 02 45  0.0-0.411797314882D-03-0.909494701773D-12 0.900000000000D+04
   -0.119938725586D+05 0.440420150757D+00 0.000000000000D+00 0.000000000000D+00
    0.221589443359D+05-0.373470306396D+00 0.186264514923D-08 0.200000000000D+01
    0.381036083984D+04 0.356631088257D+01 0.000000000000D+00 0.000000000000D+00
 9 20 05 16 02 45  0.0 0.132815912366D-03 0.181898940355D-11 0.900000000000D+04
   -0.100168735352D+05-0.276861572266D+01 0.000000000000D+00 0.000000000000D+00
    0.114478081055D+05 0.422025680542D+00 0.000000000000D+00-0.200000000000D+01
    0.204671469727D+05-0.159835910797D+01-0.931322574615D-09 0.000000000000D+00
16 20 05 16 02 45  0.0-0.355020165443D-05 0.000000000000D+00 0.900000000000D+04
   -0.246854458008D+05-0.482795715332D+00 0.000000000000D+00 0.000000000000D+00
    0.553254248047D+04 0.220682144165D+00 0.000000000000D+00-0.100000000000D+01
    0.371394677734D+04-0.350328922272D+01 0.000000000000D+00 0.000000000000D+00
10 20 05 16 02 45  0.0-0.583622604609D-04 0.000000000000D+00 0.951000000000D+04
    0.452663281250D+04-0.310650825500D+01-0.931322574615D-09 0.000000000000D+00
    0.103273676758D+05 0.417346000671D+00 0.931322574615D-09-0.700000000000D+01
    0.228648847656D+05 0.432267189026D+00-0.186264514923D-08 0.000000000000D+00
21 20 05 16 02 45  0.0-0.124779529870D-03-0.272848410532D-11 0.101400000000D+05
   -0.182831738281D+04-0.607651710510D+00 0.931322574615D-09 0.000000000000D+00
    0.209442944336D+05 0.189522171021D+01 0.279396772385D-08 0.400000000000D+01
   -0.144632910156D+05 0.281983375549D+01 0.931322574615D-09 0.000000000000D+00
20 20 05 16 03 15  0.0-0.411799177527D-03-0.909494701773D-12 0.108000000000D+05
   -0.110026049805D+05 0.617044448853D+00 0.000000000000D+00 0.000000000000D+00
    0.207005947266D+05-0.124637413025D+01 0.931322574615D-09 0.200000000000D+01
    0.999879882813D+04 0.326497077942D+01-0.931322574615D-09 0.000000000000D+00
 9 20 05 16 03 15  0.0 0.132817775011D-03 0.181898940355D-11 0.108000000000D+05
   -0.145249853516D+05-0.220367240906D+01 0.000000000000D+00 0.000000000000D+00
    0.124651386719D+05 0.677705764771D+00 0.000000000000D+00-0.200000000000D+01
    0.168351748047D+05-0.241109943390D+01-0.931322574615D-09 0.000000000000D+00
19 20 05 16 03 15  0.0-0.935075804591D-04-0.909494701773D-12 0.108000000000D+05
   -0.115076806641D+05 0.962489128113D+00 0.000000000000D+00 0.000000000000D+00
    0.334860839844D+04-0.293580818176D+01 0.000000000000D+00 0.300000000000D+01
    0.225135356445D+05 0.928686141968D+00-0.931322574615D-09 0.000000000000D+00
16 20 05 16 03 15  0.0-0.354833900928D-05 0.000000000000D+00 0.108000000000D+05
   -0.247662163086D+05 0.385549545288D+00 0.931322574615D-09 0.000000000000D+00
    0.580513281250D+04 0.425977706909D-01 0.000000000000D+00-0.100000000000D+01
   -0.265364355469D+04-0.352620410919D+01 0.931322574615D-09 0.000000000000D+00
10 20 05 16 03 15  0.0-0.583631917834D-04 0.000000000000D+00 0.108000000000D+05
   -0.101122998047D+04-0.299607658386D+01 0.000000000000D+00 0.000000000000D+00
    0.114869355469D+05 0.859779357910D+00 0.931322574615D-09-0.700000000000D+01
    0.227480454102D+05-0.561056137085D+00-0.186264514923D-08 0.000000000000D+00
21 20 05 16 03 15  0.0-0.124783255160D-03-0.272848410532D-11 0.108000000000D+05
   -0.245816259766D+04-0.117745399475D+00 0.931322574615D-09 0.000000000000D+00
    0.237926425781D+05 0.123212432861D+01 0.279396772385D-08 0.400000000000D+01
   -0.889462158203D+04 0.332744503021D+01 0.000000000000D+00 0.000000000000D+00
